GOMX-1                  
1 39430U 13066Q   24020.83563756  .00004284  00000+0  72804-3 0  9997
2 39430  97.7542 264.1172 0142867   4.5525 355.6940 14.63086844541340
CUBEBUG-2 (LO-74)       
1 39440U 13066AA  24020.40957081  .00006624  00000+0  81307-3 0  9997
2 39440  97.7979 327.6498 0073683  40.8875 319.7833 14.81470116546291
FUNCUBE-1 (AO-73)       
1 39444U 13066AE  24020.40547218  .00007834  00000+0  80959-3 0  9994
2 39444  97.7004 342.9401 0048650 275.3507  84.2161 14.89514715547944
UWE-3                   
1 39446U 13066AG  24020.41718480  .00007547  00000+0  87775-3 0  9992
2 39446  97.7633 333.7278 0062582 349.5462  10.4447 14.84175613546625
SPROUT                  
1 39770U 14029E   24020.37589693  .00049278  00000+0  24439-2 0  9993
2 39770  98.0014 161.5589 0006191 307.1493  52.9173 15.17535496524902
UNISAT-6                
1 40012U 14033C   24020.44769934  .00004107  00000+0  55617-3 0  9990
2 40012  97.6842 189.2519 0055293  70.3465 290.3702 14.78406467515853
DUCHIFAT-1              
1 40021U 14033M   24020.41366091  .00014138  00000+0  10633-2 0  9997
2 40021  98.0767 357.3128 0012524 240.2018 119.7960 15.02611103521759
QB50P1                  
1 40025U 14033R   24020.82327365  .00009836  00000+0  86093-3 0  9990
2 40025  98.0236 337.2183 0008660 297.8767  62.1576 14.96903771521174
KAITUO 1A               
1 40904U 15049F   24020.79804227  .00029712  00000+0  85342-3 0  9998
2 40904  97.4949  33.7957 0011182 118.8651 241.3716 15.35729124461596
2015-049G               
1 40905U 15049G   24020.79988847  .00010480  00000+0  42326-3 0  9997
2 40905  97.5262  28.7467 0013807 136.8991 223.3330 15.24870499461074
XW-2C                   
1 40906U 15049H   24020.70798021  .00023569  00000+0  71736-3 0  9991
2 40906  97.4895  34.6127 0012023 108.6548 251.6000 15.33937915461658
XW-2D                   
1 40907U 15049J   24020.79197550  .00029516  00000+0  79234-3 0  9990
2 40907  97.4857  36.0743 0010897  99.7715 260.4760 15.37840905461815
LILACSAT-2              
1 40908U 15049K   24020.74062035  .00009108  00000+0  38761-3 0  9990
2 40908  97.5278  28.7260 0014129 143.9242 216.2950 15.23141094460878
XW-2E                   
1 40909U 15049L   24020.79956167  .00144405  00000+0  14201-2 0  9996
2 40909  97.4312  46.4058 0006741  64.4300 295.7656 15.65520451462828
XW-2F                   
1 40910U 15049M   24020.78996958  .00134969  00000+0  14058-2 0  9993
2 40910  97.4417  45.6341 0007447  65.7731 294.4305 15.64087889462546
XW-2B                   
1 40911U 15049N   24020.82996526  .00030517  00000+0  82970-3 0  9993
2 40911  97.4833  36.3858 0010971 101.0266 259.2213 15.37438524461690
KAITUO 1B               
1 40912U 15049P   24020.04191054  .03137908  24393-5  15637-2 0  9998
2 40912  97.3786  52.4806 0002358 238.5952 121.5107 16.20881175463442
LAPAN-A2                
1 40931U 15052B   24006.28856983  .00001263  00000+0  84248-4 0  9992
2 40931   6.0004  76.3799 0013541 291.8204  68.0484 14.77555377447321
E-ST@R-II               
1 41459U 16025D   24020.74275594  .00094818  00000+0  13805-2 0  9996
2 41459  98.1529 252.0099 0068343  51.1725 309.5599 15.52667698426367
AIST-2D (RS-48)         
1 41465U 16026B   24020.72344727  .00092223  00000+0  51734-3 0  9999
2 41465  96.9594 255.2392 0006274 113.5914 246.6013 15.79002605434014
CAS-2T & KS-1Q          
1 41847U 16066G   24020.22040905  .00002385  00000+0  36127-3 0  9992
2 41847  98.4794  92.5821 0355482 265.6504  90.3999 14.40565890378042
ZHUHAI-1 02 (CAS-4B)    
1 42759U 17034B   24020.79227829  .00016413  00000+0  69823-3 0  9991
2 42759  43.0147 341.5636 0009713  82.3460 277.8493 15.22731572364748
ZHUHAI-1 01 (CAS-4A)    
1 42761U 17034D   24020.80439420  .00016627  00000+0  70568-3 0  9993
2 42761  43.0133 339.9569 0010612  84.2811 275.9249 15.22796157364752
MAX VALIER SAT          
1 42778U 17036P   24020.56930845  .00055663  00000+0  84203-3 0  9997
2 42778  97.1291  57.0087 0006511  42.1010 318.0744 15.54492109366302
RADFXSAT (FOX-1B)       
1 43017U 17073E   24020.60190013  .00009048  00000+0  58942-3 0  9992
2 43017  97.6011 261.5107 0222542  69.1960 293.2941 14.89959098333518
FOX-1D (AO-92)          
1 43137U 18004AC  24020.71065676  .00582073  14510-3  13814-2 0  9995
2 43137  97.2910 111.8125 0003856 317.1478  42.9497 15.96712457336239
DIWATA-2B               
1 43678U 18084H   24020.74101372  .00002556  00000+0  24264-3 0  9990
2 43678  98.0480 174.6710 0009601 155.9304 204.2366 14.94431193284745
ES'HAIL 2               
1 43700U 18090A   24020.75256528  .00000148  00000+0  00000+0 0  9991
2 43700   0.0163  82.9154 0002724 256.0096  77.3869  1.00273129 19115
FOX-1CLIFF (AO-95)      
1 43770U 18099N   24020.10688812  .00009398  00000+0  70088-3 0  9994
2 43770  97.5712  81.2909 0015308 146.8917 213.3270 15.02991150280153
ITASAT                  
1 43786U 18099AE  24020.13557679  .00006799  00000+0  52181-3 0  9996
2 43786  97.5311  81.7098 0019213 132.0996 228.1866 15.01949713280187
