OBJECT_NAME,OBJECT_ID,EPOCH,MEAN_MOTION,ECCENTRICITY,INCLINATION,RA_OF_ASC_NODE,ARG_OF_PERICENTER,MEAN_ANOMALY,EPHEMERIS_TYPE,CLASSIFICATION_TYPE,NORAD_CAT_ID,ELEMENT_SET_NO,REV_AT_EPOCH,BSTAR,MEAN_MOTION_DOT,MEAN_MOTION_DDOT
GOMX-1,2013-066Q,2024-01-20T20:03:19.085184,14.63086844,.0142867,97.7542,264.1172,4.5525,355.6940,0,U,39430,999,54134,.72804E-3,.4284E-4,0
CUBEBUG-2 (LO-74),2013-066AA,2024-01-20T09:49:46.917984,14.81470116,.0073683,97.7979,327.6498,40.8875,319.7833,0,U,39440,999,54629,.81307E-3,.6624E-4,0
FUNCUBE-1 (AO-73),2013-066AE,2024-01-20T09:43:52.796352,14.89514715,.004865,97.7004,342.9401,275.3507,84.2161,0,U,39444,999,54794,.80959E-3,.7834E-4,0
UWE-3,2013-066AG,2024-01-20T10:00:44.766720,14.84175613,.0062582,97.7633,333.7278,349.5462,10.4447,0,U,39446,999,54662,.87775E-3,.7547E-4,0
SPROUT,2014-029E,2024-01-20T09:01:17.494752,15.17535496,.0006191,98.0014,161.5589,307.1493,52.9173,0,U,39770,999,52490,.24439E-2,.49278E-3,0
UNISAT-6,2014-033C,2024-01-20T10:44:41.222976,14.78406467,.0055293,97.6842,189.2519,70.3465,290.3702,0,U,40012,999,51585,.55617E-3,.4107E-4,0
DUCHIFAT-1,2014-033M,2024-01-20T09:55:40.302624,15.02611103,.0012524,98.0767,357.3128,240.2018,119.7960,0,U,40021,999,52175,.10633E-2,.14138E-3,0
QB50P1,2014-033R,2024-01-20T19:45:30.843360,14.96903771,.000866,98.0236,337.2183,297.8767,62.1576,0,U,40025,999,52117,.86093E-3,.9836E-4,0
KAITUO 1A,2015-049F,2024-01-20T19:09:10.852128,15.35729124,.0011182,97.4949,33.7957,118.8651,241.3716,0,U,40904,999,46159,.85342E-3,.29712E-3,0
2015-049G,2015-049G,2024-01-20T19:11:50.363808,15.24870499,.0013807,97.5262,28.7467,136.8991,223.3330,0,U,40905,999,46107,.42326E-3,.1048E-3,0
XW-2C,2015-049H,2024-01-20T16:59:29.490144,15.33937915,.0012023,97.4895,34.6127,108.6548,251.6000,0,U,40906,999,46165,.71736E-3,.23569E-3,0
XW-2D,2015-049J,2024-01-20T19:00:26.683200,15.37840905,.0010897,97.4857,36.0743,99.7715,260.4760,0,U,40907,999,46181,.79234E-3,.29516E-3,0
LILACSAT-2,2015-049K,2024-01-20T17:46:29.598240,15.23141094,.0014129,97.5278,28.7260,143.9242,216.2950,0,U,40908,999,46087,.38761E-3,.9108E-4,0
XW-2E,2015-049L,2024-01-20T19:11:22.128288,15.65520451,.0006741,97.4312,46.4058,64.4300,295.7656,0,U,40909,999,46282,.14201E-2,.144405E-2,0
XW-2F,2015-049M,2024-01-20T18:57:33.371712,15.64087889,.0007447,97.4417,45.6341,65.7731,294.4305,0,U,40910,999,46254,.14058E-2,.134969E-2,0
XW-2B,2015-049N,2024-01-20T19:55:08.998464,15.37438524,.0010971,97.4833,36.3858,101.0266,259.2213,0,U,40911,999,46169,.8297E-3,.30517E-3,0
KAITUO 1B,2015-049P,2024-01-20T01:00:21.070656,16.20881175,.0002358,97.3786,52.4806,238.5952,121.5107,0,U,40912,999,46344,.15637E-2,.3137908E-1,.24393E-5
LAPAN-A2,2015-052B,2024-01-06T06:55:32.433312,14.77555377,.0013541,6.0004,76.3799,291.8204,68.0484,0,U,40931,999,44732,.84248E-4,.1263E-4,0
E-ST@R-II,2016-025D,2024-01-20T17:49:34.113216,15.52667698,.0068343,98.1529,252.0099,51.1725,309.5599,0,U,41459,999,42636,.13805E-2,.94818E-3,0
AIST-2D (RS-48),2016-026B,2024-01-20T17:21:45.844128,15.79002605,.0006274,96.9594,255.2392,113.5914,246.6013,0,U,41465,999,43401,.51734E-3,.92223E-3,0
CAS-2T & KS-1Q,2016-066G,2024-01-20T05:17:23.341920,14.40565890,.0355482,98.4794,92.5821,265.6504,90.3999,0,U,41847,999,37804,.36127E-3,.2385E-4,0
ZHUHAI-1 02 (CAS-4B),2017-034B,2024-01-20T19:00:52.844256,15.22731572,.0009713,43.0147,341.5636,82.3460,277.8493,0,U,42759,999,36474,.69823E-3,.16413E-3,0
ZHUHAI-1 01 (CAS-4A),2017-034D,2024-01-20T19:18:19.658880,15.22796157,.0010612,43.0133,339.9569,84.2811,275.9249,0,U,42761,999,36475,.70568E-3,.16627E-3,0
MAX VALIER SAT,2017-036P,2024-01-20T13:39:48.250080,15.54492109,.0006511,97.1291,57.0087,42.1010,318.0744,0,U,42778,999,36630,.84203E-3,.55663E-3,0
RADFXSAT (FOX-1B),2017-073E,2024-01-20T14:26:44.171232,14.89959098,.0222542,97.6011,261.5107,69.1960,293.2941,0,U,43017,999,33351,.58942E-3,.9048E-4,0
FOX-1D (AO-92),2018-004AC,2024-01-20T17:03:20.744064,15.96712457,.0003856,97.2910,111.8125,317.1478,42.9497,0,U,43137,999,33623,.13814E-2,.582073E-2,.1451E-3
DIWATA-2B,2018-084H,2024-01-20T17:47:03.585408,14.94431193,.0009601,98.0480,174.6710,155.9304,204.2366,0,U,43678,999,28474,.24264E-3,.2556E-4,0
ES'HAIL 2,2018-090A,2024-01-20T18:03:41.640192,1.00273129,.0002724,0.0163,82.9154,256.0096,77.3869,0,U,43700,999,1911,0,.148E-5,0
FOX-1CLIFF (AO-95),2018-099N,2024-01-20T02:33:55.133568,15.02991150,.0015308,97.5712,81.2909,146.8917,213.3270,0,U,43770,999,28015,.70088E-3,.9398E-4,0
ITASAT,2018-099AE,2024-01-20T03:15:13.834656,15.01949713,.0019213,97.5311,81.7098,132.0996,228.1866,0,U,43786,999,28018,.52181E-3,.6799E-4,0
